IRIDIUM 26              
1 24903U 97043A   24259.95526893  .00002031  00000+0  68462-3 0  9994
2 24903  86.3963 225.6555 0002221  86.0961 274.0490 14.36592020417361
IRIDIUM 22              
1 24907U 97043E   24259.87230116  .00001825  00000+0  62867-3 0  9992
2 24907  86.3959 228.9974 0002403  88.6836 271.4635 14.35464937417414
DUMMY MASS 2            
1 24926U 97048B   24259.93104691  .00001581  00000+0  17697-3 0  9993
2 24926  86.3289 263.5986 0009598  59.8503 300.3671 14.86178334464167
IRIDIUM 33              
1 24946U 97051C   24259.95983105  .00001167  00000+0  40719-3 0  9997
2 24946  86.3815 258.0732 0005787 247.0755 112.9830 14.34508813413427
IRIDIUM 28              
1 24948U 97051E   24259.92972411  .00001710  00000+0  57243-3 0  9998
2 24948  86.3907 256.5090 0001879  91.9433 268.1980 14.36864210414450
